[{"OBJECT_NAME":"GEISAT PRECURSOR","OBJECT_ID":"2023-084C","EPOCH":"2026-03-09T22:20:25.833120","MEAN_MOTION":15.33054389,"ECCENTRICITY":0.00051675,"INCLINATION":97.6055,"RA_OF_ASC_NODE":206.8263,"ARG_OF_PERICENTER":345.1842,"MEAN_ANOMALY":14.9247,"EPHEMERIS_TYPE":0,"CLASSIFICATION_TYPE":"U","NORAD_CAT_ID":56934,"ELEMENT_SET_NO":999,"REV_AT_EPOCH":15231,"BSTAR":0.00033857167,"MEAN_MOTION_DOT":0.00010736,"MEAN_MOTION_DDOT":0},{"OBJECT_NAME":"STARLINK-36074","OBJECT_ID":"2025-283Y","EPOCH":"2026-03-09T07:19:13.246752","MEAN_MOTION":15.3021296,"ECCENTRICITY":0.00012356,"INCLINATION":53.1613,"RA_OF_ASC_NODE":26.069,"ARG_OF_PERICENTER":84.6919,"MEAN_ANOMALY":275.4223,"EPHEMERIS_TYPE":0,"CLASSIFICATION_TYPE":"U","NORAD_CAT_ID":66900,"ELEMENT_SET_NO":999,"REV_AT_EPOCH":1578,"BSTAR":0.001345516,"MEAN_MOTION_DOT":0.0003972,"MEAN_MOTION_DDOT":0}]
